NORAD_CAT_ID,OBJECT_NAME,OBJECT_TYPE,EPOCH,MEAN_MOTION,ECCENTRICITY,INCLINATION,RA_OF_ASC_NODE,ARG_OF_PERICENTER,MEAN_ANOMALY,BSTAR,MEAN_MOTION_DOT,MEAN_MOTION_DDOT,TLE_LINE0,TLE_LINE1,TLE_LINE2,SEMIMAJOR_AXIS,PERIOD,APOGEE,PERIGEE,DECAYED
54012.0,STARLINK-5126,PAYLOAD,2023-10-19 05:38:19,15.08846785,0.0001327,53.2172,160.5997,75.3031,284.8108,0.00017062,2.429e-05,0.0,0 STARLINK-5126,1 54012U 22125BA  23292.23494912  .00002429  00000-0  17062-3 0  9992,2 54012  53.2172 160.5997 0001327  75.3031 284.8108 15.08846785 57895,6917.86,95.437,540.643,538.807,0.0
54012.0,STARLINK-5126,PAYLOAD,2023-10-19 21:32:10,15.08854726,0.0001209,53.2155,157.6262,77.799,282.3138,0.00026488,3.932e-05,0.0,0 STARLINK-5126,1 54012U 22125BA  23292.89734274  .00003932  00000-0  26488-3 0  9994,2 54012  53.2155 157.6262 0001209  77.7990 282.3138 15.08854726 57998,6917.835,95.437,540.537,538.864,0.0
54012.0,STARLINK-5126,PAYLOAD,2023-10-20 18:12:11,15.0883872,9.55e-05,53.2165,153.7602,111.5442,248.5652,7.8865e-05,9.68e-06,0.0,0 STARLINK-5126,1 54012U 22125BA  23293.75847014  .00000968  00000-0  78865-4 0  9990,2 54012  53.2165 153.7602 0000955 111.5442 248.5652 15.08838720 58172,6917.884,95.438,540.41,539.089,0.0
54012.0,STARLINK-5126,PAYLOAD,2023-10-20 21:22:58,15.08834889,0.0001296,53.2165,153.1642,84.248,275.8659,-6.9213e-05,-1.389e-05,0.0,0 STARLINK-5126,1 54012U 22125BA  23293.89095301 -.00001389  00000-0 -69213-4 0  9996,2 54012  53.2165 153.1642 0001296  84.2480 275.8659 15.08834889 58146,6917.896,95.438,540.658,538.864,0.0
54012.0,STARLINK-5126,PAYLOAD,2023-10-21 21:13:44,15.0885034,0.0001515,53.2167,148.7031,89.9135,270.2031,0.00037264,5.649e-05,0.0,0 STARLINK-5126,1 54012U 22125BA  23294.88454726  .00005649  00000-0  37264-3 0  9997,2 54012  53.2167 148.7031 0001515  89.9135 270.2031 15.08850340 58348,6917.849,95.437,540.762,538.666,0.0
54012.0,STARLINK-5126,PAYLOAD,2023-10-22 21:04:33,15.08830262,0.0001449,53.2161,144.2435,97.1907,262.925,6.3755e-05,7.27e-06,0.0,0 STARLINK-5126,1 54012U 22125BA  23295.87816128  .00000727  00000-0  63755-4 0  9992,2 54012  53.2161 144.2435 0001449  97.1907 262.9250 15.08830262 58493,6917.91,95.438,540.778,538.773,0.0
54012.0,STARLINK-5126,PAYLOAD,2023-10-23 19:19:56,15.08845782,0.0001494,53.2159,140.0797,93.8931,266.2232,-1.6756e-05,-5.55e-06,0.0,0 STARLINK-5126,1 54012U 22125BA  23296.80551546 -.00000555  00000-0 -16756-4 0  9996,2 54012  53.2159 140.0797 0001494  93.8931 266.2232 15.08845782 58631,6917.863,95.437,540.761,538.694,0.0
54012.0,STARLINK-5126,PAYLOAD,2023-10-23 20:55:19,15.08847355,0.000145,53.2161,139.7832,94.5565,265.5592,3.9882e-05,3.47e-06,0.0,0 STARLINK-5126,1 54012U 22125BA  23296.87175445  .00000347  00000-0  39882-4 0  9995,2 54012  53.2161 139.7832 0001450  94.5565 265.5592 15.08847355 58596,6917.858,95.437,540.726,538.72,0.0
54012.0,STARLINK-5126,PAYLOAD,2023-10-24 06:27:38,15.08837194,0.0001576,53.2159,137.9992,95.5712,264.546,2.9447e-05,1.81e-06,0.0,0 STARLINK-5126,1 54012U 22125BA  23297.26919845  .00000181  00000-0  29447-4 0  9991,2 54012  53.2159 137.9992 0001576  95.5712 264.5460 15.08837194 58700,6917.889,95.438,540.844,538.664,0.0
54012.0,STARLINK-5126,PAYLOAD,2023-10-24 14:24:34,15.08838385,0.0001446,53.2157,136.513,101.3823,258.7331,0.00016403,2.323e-05,0.0,0 STARLINK-5126,1 54012U 22125BA  23297.60040033  .00002323  00000-0  16403-3 0  9990,2 54012  53.2157 136.5130 0001446 101.3823 258.7331 15.08838385 58707,6917.885,95.438,540.751,538.75,0.0
54012.0,STARLINK-5126,PAYLOAD,2023-10-25 12:39:58,15.08842157,0.0001428,53.2152,132.3501,100.1903,259.925,9.4285e-05,1.213e-05,0.0,0 STARLINK-5126,1 54012U 22125BA  23298.52775626  .00001213  00000-0  94285-4 0  9997,2 54012  53.2152 132.3501 0001428 100.1903 259.9250 15.08842157 58899,6917.874,95.437,540.727,538.751,0.0
54012.0,STARLINK-5126,PAYLOAD,2023-10-26 12:30:45,15.08840859,0.000143,53.2151,127.8892,93.6011,266.5145,7.3765e-05,8.86e-06,0.0,0 STARLINK-5126,1 54012U 22125BA  23299.52135776  .00000886  00000-0  73765-4 0  9999,2 54012  53.2151 127.8892 0001430  93.6011 266.5145 15.08840859 58994,6917.878,95.438,540.732,538.754,0.0
54012.0,STARLINK-5126,PAYLOAD,2023-10-26 18:52:17,15.0884509,0.0001401,53.2152,126.6996,94.9985,265.1167,0.00019627,2.838e-05,0.0,0 STARLINK-5126,1 54012U 22125BA  23299.78631687  .00002838  00000-0  19627-3 0  9994,2 54012  53.2152 126.6996 0001401  94.9985 265.1167 15.08845090 59081,6917.865,95.437,540.699,538.761,0.0
54012.0,STARLINK-5126,PAYLOAD,2023-10-26 20:27:40,15.08847243,0.000139,53.2152,126.4023,94.7663,265.3487,0.00024318,3.585e-05,0.0,0 STARLINK-5126,1 54012U 22125BA  23299.85255619  .00003585  00000-0  24318-3 0  9992,2 54012  53.2152 126.4023 0001390  94.7663 265.3487 15.08847243 59043,6917.858,95.437,540.685,538.762,0.0
54012.0,STARLINK-5126,PAYLOAD,2023-10-27 12:21:32,15.08844603,0.0001404,53.2149,123.4285,92.0448,268.0705,0.00024532,3.619e-05,0.0,0 STARLINK-5126,1 54012U 22125BA  23300.51495730  .00003619  00000-0  24532-3 0  9994,2 54012  53.2149 123.4285 0001404  92.0448 268.0705 15.08844603 59145,6917.866,95.437,540.703,538.76,0.0
54012.0,STARLINK-5126,PAYLOAD,2023-10-27 18:43:04,15.08848716,0.0001404,53.2152,122.2387,92.196,267.9193,0.00027893,4.155e-05,0.0,0 STARLINK-5126,1 54012U 22125BA  23300.77991556  .00004155  00000-0  27893-3 0  9998,2 54012  53.2152 122.2387 0001404  92.1960 267.9193 15.08848716 59181,6917.854,95.437,540.69,538.747,0.0
54012.0,STARLINK-5126,PAYLOAD,2023-10-28 05:50:46,15.08846001,0.0001345,53.2152,120.1569,93.4103,266.7043,0.00020513,2.979e-05,0.0,0 STARLINK-5126,1 54012U 22125BA  23301.24359565  .00002979  00000-0  20513-3 0  9993,2 54012  53.2152 120.1569 0001345  93.4103 266.7043 15.08846001 59307,6917.862,95.437,540.657,538.797,0.0
54012.0,STARLINK-5126,PAYLOAD,2023-10-28 18:33:52,15.08839545,0.0001362,53.2155,117.7778,91.5559,268.5589,0.00012149,1.646e-05,0.0,0 STARLINK-5126,1 54012U 22125BA  23301.77351869  .00001646  00000-0  12149-3 0  9996,2 54012  53.2155 117.7778 0001362  91.5559 268.5589 15.08839545 59385,6917.882,95.438,540.689,538.805,0.0
54012.0,STARLINK-5126,PAYLOAD,2023-10-28 21:44:38,15.08840284,0.0001412,53.2155,117.1828,94.5172,265.5982,0.00015743,2.218e-05,0.0,0 STARLINK-5126,1 54012U 22125BA  23301.90599830  .00002218  00000-0  15743-3 0  9992,2 54012  53.2155 117.1828 0001412  94.5172 265.5982 15.08840284 59358,6917.88,95.438,540.721,538.768,0.0
54012.0,STARLINK-5126,PAYLOAD,2023-10-29 18:24:38,15.08846263,0.0001354,53.2156,113.3168,85.1963,274.9183,0.00010264,1.346e-05,0.0,0 STARLINK-5126,1 54012U 22125BA  23302.76711453  .00001346  00000-0  10264-3 0  9998,2 54012  53.2156 113.3168 0001354  85.1963 274.9183 15.08846263 59487,6917.861,95.437,540.663,538.79,0.0
54012.0,STARLINK-5126,PAYLOAD,2023-10-30 11:53:53,15.08833432,0.0001536,53.216,110.0473,88.8691,271.2477,3.5565e-05,2.78e-06,0.0,0 STARLINK-5126,1 54012U 22125BA  23303.49576162  .00000278  00000-0  35565-4 0  9990,2 54012  53.2160 110.0473 0001536  88.8691 271.2477 15.08833432 59643,6917.9,95.438,540.828,538.703,0.0
54012.0,STARLINK-5126,PAYLOAD,2023-10-30 18:15:26,15.08837916,0.0001664,53.2166,108.8586,87.5233,272.5949,2.9611e-05,1.83e-06,0.0,0 STARLINK-5126,1 54012U 22125BA  23303.76071920  .00000183  00000-0  29611-4 0  9992,2 54012  53.2166 108.8586 0001664  87.5233 272.5949 15.08837916 59637,6917.887,95.438,540.903,538.601,0.0
54012.0,STARLINK-5126,PAYLOAD,2023-10-31 14:55:27,15.08839983,0.0001444,53.2187,104.9935,92.8064,267.3093,4.9941e-05,5.07e-06,0.0,0 STARLINK-5126,1 54012U 22125BA  23304.62184207  .00000507  00000-0  49941-4 0  9999,2 54012  53.2187 104.9935 0001444  92.8064 267.3093 15.08839983 59764,6917.88,95.438,540.744,538.746,0.0
54012.0,STARLINK-5126,PAYLOAD,2023-10-31 18:06:13,15.08840802,0.0001386,53.2179,104.3985,93.2719,266.8431,6.1235e-05,6.87e-06,0.0,0 STARLINK-5126,1 54012U 22125BA  23304.75432105  .00000687  00000-0  61235-4 0  9995,2 54012  53.2179 104.3985 0001386  93.2719 266.8431 15.08840802 59831,6917.878,95.438,540.702,538.784,0.0
54012.0,STARLINK-5126,PAYLOAD,2023-11-01 03:38:32,15.08838143,0.0001317,53.2177,102.6144,91.3192,268.7951,6.9815e-05,8.23e-06,0.0,0 STARLINK-5126,1 54012U 22125BA  23305.15176332  .00000823  00000-0  69815-4 0  9991,2 54012  53.2177 102.6144 0001317  91.3192 268.7951 15.08838143 59849,6917.886,95.438,540.662,538.84,0.0
54012.0,STARLINK-5126,PAYLOAD,2023-11-01 19:32:23,15.08840303,0.0001293,53.2186,99.6401,90.3733,269.7407,0.00010167,1.331e-05,0.0,0 STARLINK-5126,1 54012U 22125BA  23305.81416289  .00001331  00000-0  10167-3 0  9992,2 54012  53.2186  99.6401 0001293  90.3733 269.7407 15.08840303 59997,6917.879,95.438,540.639,538.85,0.0
54012.0,STARLINK-5126,PAYLOAD,2023-11-02 14:37:01,15.08843871,0.0001454,53.2183,96.0717,90.1428,269.9731,0.00013044,1.789e-05,0.0,0 STARLINK-5126,1 54012U 22125BA  23306.60904125  .00001789  00000-0  13044-3 0  9995,2 54012  53.2183  96.0717 0001454  90.1428 269.9731 15.08843871 60068,6917.869,95.437,540.739,538.728,0.0
54012.0,STARLINK-5126,PAYLOAD,2023-11-02 17:47:47,15.08846798,0.0001369,53.218,95.4771,88.865,271.2499,0.00014504,2.022e-05,0.0,0 STARLINK-5126,1 54012U 22125BA  23306.74151878  .00002022  00000-0  14504-3 0  9992,2 54012  53.2180  95.4771 0001369  88.8650 271.2499 15.08846798 60084,6917.86,95.437,540.672,538.778,0.0
54012.0,STARLINK-5126,PAYLOAD,2023-11-03 03:20:06,15.08847076,0.0001345,53.2193,93.691,83.574,276.5405,-3.5971e-05,-8.6e-06,0.0,0 STARLINK-5126,1 54012U 22125BA  23307.13896189 -.00000860  00000-0 -35971-4 0  9999,2 54012  53.2193  93.6910 0001345  83.5740 276.5405 15.08847076 60196,6917.859,95.437,540.654,538.793,0.0
54012.0,STARLINK-5126,PAYLOAD,2023-11-03 14:27:48,15.08835214,0.0001593,53.2189,91.6103,83.3493,276.768,1.9379e-05,2e-07,0.0,0 STARLINK-5126,1 54012U 22125BA  23307.60264810  .00000020  00000-0  19379-4 0  9991,2 54012  53.2189  91.6103 0001593  83.3493 276.7680 15.08835214 60212,6917.895,95.438,540.862,538.658,0.0
